{
  "type": "FeatureCollection",
  "features": [
    {
      "type": "Feature",
      "properties": {
        "norad_id": 29486,
        "name": "GPS BIIRM-2 (PRN 31)",
        "group": "gps-ops",
        "lat": -31.12130387777318,
        "lon": 3.874790101585691,
        "alt_km": 20464.725805979357,
        "timestamp": "2025-12-17T19:34:08.297303+00:00",
        "meta_object_name": "GPS BIIRM-2 (PRN 31)",
        "meta_object_id": "2006-042A",
        "meta_epoch": "2025-12-16T18:24:54.505728",
        "meta_mean_motion": 2.00554045,
        "meta_eccentricity": 0.01073341,
        "meta_inclination": 54.6946,
        "meta_ra_of_asc_node": 158.5809,
        "meta_arg_of_pericenter": 52.0567,
        "meta_mean_anomaly": 130.2096,
        "meta_ephemeris_type": 0,
        "meta_classification_type": "U",
        "meta_norad_cat_id": 29486,
        "meta_element_set_no": 999,
        "meta_rev_at_epoch": 14073,
        "meta_bstar": 0,
        "meta_mean_motion_dot": 8.7e-07,
        "meta_mean_motion_ddot": 0,
        "tle_line1": "1 29486U 06042A   25350.76729752  .00000087  00000+0  00000+0 0  9994",
        "tle_line2": "2 29486  54.6946 158.5809 0107334  52.0567 130.2096  2.00554045140735"
      },
      "geometry": {
        "type": "Point",
        "coordinates": [
          3.874790101585691,
          -31.12130387777318
        ]
      }
    },
    {
      "type": "Feature",
      "properties": {
        "norad_id": 29601,
        "name": "GPS BIIRM-3 (PRN 12)",
        "group": "gps-ops",
        "lat": -54.40178910457251,
        "lon": 142.90155251147613,
        "alt_km": 20417.07902575479,
        "timestamp": "2025-12-17T19:34:08.297315+00:00",
        "meta_object_name": "GPS BIIRM-3 (PRN 12)",
        "meta_object_id": "2006-052A",
        "meta_epoch": "2025-12-15T22:30:08.867232",
        "meta_mean_motion": 2.00573827,
        "meta_eccentricity": 0.00878265,
        "meta_inclination": 54.9699,
        "meta_ra_of_asc_node": 221.2713,
        "meta_arg_of_pericenter": 87.4673,
        "meta_mean_anomaly": 273.6251,
        "meta_ephemeris_type": 0,
        "meta_classification_type": "U",
        "meta_norad_cat_id": 29601,
        "meta_element_set_no": 999,
        "meta_rev_at_epoch": 13973,
        "meta_bstar": 0,
        "meta_mean_motion_dot": 6e-07,
        "meta_mean_motion_ddot": 0,
        "tle_line1": "1 29601U 06052A   25349.93760263  .00000060  00000+0  00000+0 0  9994",
        "tle_line2": "2 29601  54.9699 221.2713 0087826  87.4673 273.6251  2.00573827139739"
      },
      "geometry": {
        "type": "Point",
        "coordinates": [
          142.90155251147613,
          -54.40178910457251
        ]
      }
    },
    {
      "type": "Feature",
      "properties": {
        "norad_id": 32260,
        "name": "GPS BIIRM-4 (PRN 15)",
        "group": "gps-ops",
        "lat": 42.066488036829575,
        "lon": 128.5600338311786,
        "alt_km": 19796.014864454955,
        "timestamp": "2025-12-17T19:34:08.297327+00:00",
        "meta_object_name": "GPS BIIRM-4 (PRN 15)",
        "meta_object_id": "2007-047A",
        "meta_epoch": "2025-12-16T05:50:40.703424",
        "meta_mean_motion": 2.00564422,
        "meta_eccentricity": 0.01640582,
        "meta_inclination": 53.9575,
        "meta_ra_of_asc_node": 87.6137,
        "meta_arg_of_pericenter": 85.2876,
        "meta_mean_anomaly": 276.573,
        "meta_ephemeris_type": 0,
        "meta_classification_type": "U",
        "meta_norad_cat_id": 32260,
        "meta_element_set_no": 999,
        "meta_rev_at_epoch": 13314,
        "meta_bstar": 0,
        "meta_mean_motion_dot": -5.5e-07,
        "meta_mean_motion_ddot": 0,
        "tle_line1": "1 32260U 07047A   25350.24352666 -.00000055  00000+0  00000+0 0  9999",
        "tle_line2": "2 32260  53.9575  87.6137 0164058  85.2876 276.5730  2.00564422133148"
      },
      "geometry": {
        "type": "Point",
        "coordinates": [
          128.5600338311786,
          42.066488036829575
        ]
      }
    },
    {
      "type": "Feature",
      "properties": {
        "norad_id": 32384,
        "name": "GPS BIIRM-5 (PRN 29)",
        "group": "gps-ops",
        "lat": -5.292239764890898,
        "lon": 105.11608191780068,
        "alt_km": 20103.631599948676,
        "timestamp": "2025-12-17T19:34:08.297339+00:00",
        "meta_object_name": "GPS BIIRM-5 (PRN 29)",
        "meta_object_id": "2007-062A",
        "meta_epoch": "2025-12-16T19:22:21.732672",
        "meta_mean_motion": 2.00577594,
        "meta_eccentricity": 0.0032249,
        "meta_inclination": 55.1786,
        "meta_ra_of_asc_node": 281.4828,
        "meta_arg_of_pericenter": 162.2986,
        "meta_mean_anomaly": 15.9546,
        "meta_ephemeris_type": 0,
        "meta_classification_type": "U",
        "meta_norad_cat_id": 32384,
        "meta_element_set_no": 999,
        "meta_rev_at_epoch": 13185,
        "meta_bstar": 0,
        "meta_mean_motion_dot": -6.1e-07,
        "meta_mean_motion_ddot": 0,
        "tle_line1": "1 32384U 07062A   25350.80719598 -.00000061  00000+0  00000+0 0  9993",
        "tle_line2": "2 32384  55.1786 281.4828 0032249 162.2986  15.9546  2.00577594131858"
      },
      "geometry": {
        "type": "Point",
        "coordinates": [
          105.11608191780068,
          -5.292239764890898
        ]
      }
    },
    {
      "type": "Feature",
      "properties": {
        "norad_id": 32711,
        "name": "GPS BIIRM-6 (PRN 07)",
        "group": "gps-ops",
        "lat": 50.35471105815931,
        "lon": -82.4394608091104,
        "alt_km": 20559.250782653693,
        "timestamp": "2025-12-17T19:34:08.297350+00:00",
        "meta_object_name": "GPS BIIRM-6 (PRN 07)",
        "meta_object_id": "2008-012A",
        "meta_epoch": "2025-12-16T03:55:52.800384",
        "meta_mean_motion": 2.00565827,
        "meta_eccentricity": 0.0202594,
        "meta_inclination": 54.4775,
        "meta_ra_of_asc_node": 157.2362,
        "meta_arg_of_pericenter": 244.9852,
        "meta_mean_anomaly": 112.9072,
        "meta_ephemeris_type": 0,
        "meta_classification_type": "U",
        "meta_norad_cat_id": 32711,
        "meta_element_set_no": 999,
        "meta_rev_at_epoch": 13008,
        "meta_bstar": 0,
        "meta_mean_motion_dot": 8.9e-07,
        "meta_mean_motion_ddot": 0,
        "tle_line1": "1 32711U 08012A   25350.16380556  .00000089  00000+0  00000+0 0  9999",
        "tle_line2": "2 32711  54.4775 157.2362 0202594 244.9852 112.9072  2.00565827130089"
      },
      "geometry": {
        "type": "Point",
        "coordinates": [
          -82.4394608091104,
          50.35471105815931
        ]
      }
    },
    {
      "type": "Feature",
      "properties": {
        "norad_id": 35752,
        "name": "GPS BIIRM-8 (PRN 05)",
        "group": "gps-ops",
        "lat": 38.92129033130006,
        "lon": -178.26443520953828,
        "alt_km": 20086.69767622046,
        "timestamp": "2025-12-17T19:34:08.297361+00:00",
        "meta_object_name": "GPS BIIRM-8 (PRN 05)",
        "meta_object_id": "2009-043A",
        "meta_epoch": "2025-12-15T22:20:02.106816",
        "meta_mean_motion": 2.00565586,
        "meta_eccentricity": 0.00517182,
        "meta_inclination": 56.0932,
        "meta_ra_of_asc_node": 34.6571,
        "meta_arg_of_pericenter": 81.8462,
        "meta_mean_anomaly": 127.6063,
        "meta_ephemeris_type": 0,
        "meta_classification_type": "U",
        "meta_norad_cat_id": 35752,
        "meta_element_set_no": 999,
        "meta_rev_at_epoch": 11968,
        "meta_bstar": 0,
        "meta_mean_motion_dot": -8.6e-07,
        "meta_mean_motion_ddot": 0,
        "tle_line1": "1 35752U 09043A   25349.93057994 -.00000086  00000+0  00000+0 0  9990",
        "tle_line2": "2 35752  56.0932  34.6571 0051718  81.8462 127.6063  2.00565586119683"
      },
      "geometry": {
        "type": "Point",
        "coordinates": [
          -178.26443520953828,
          38.92129033130006
        ]
      }
    },
    {
      "type": "Feature",
      "properties": {
        "norad_id": 36585,
        "name": "GPS BIIF-1  (PRN 25)",
        "group": "gps-ops",
        "lat": -49.042411929668894,
        "lon": 91.78158533873857,
        "alt_km": 20523.58305643936,
        "timestamp": "2025-12-17T19:34:08.297372+00:00",
        "meta_object_name": "GPS BIIF-1  (PRN 25)",
        "meta_object_id": "2010-022A",
        "meta_epoch": "2025-12-16T01:01:22.883808",
        "meta_mean_motion": 2.00553454,
        "meta_eccentricity": 0.01262565,
        "meta_inclination": 54.2996,
        "meta_ra_of_asc_node": 215.9407,
        "meta_arg_of_pericenter": 65.1133,
        "meta_mean_anomaly": 343.5127,
        "meta_ephemeris_type": 0,
        "meta_classification_type": "U",
        "meta_norad_cat_id": 36585,
        "meta_element_set_no": 999,
        "meta_rev_at_epoch": 11392,
        "meta_bstar": 0,
        "meta_mean_motion_dot": 7.2e-07,
        "meta_mean_motion_ddot": 0,
        "tle_line1": "1 36585U 10022A   25350.04262597  .00000072  00000+0  00000+0 0  9999",
        "tle_line2": "2 36585  54.2996 215.9407 0126256  65.1133 343.5127  2.00553454113922"
      },
      "geometry": {
        "type": "Point",
        "coordinates": [
          91.78158533873857,
          -49.042411929668894
        ]
      }
    }
  ]
}